CCSDS_OMM_VERS = 2.0
CREATION_DATE  = 
ORIGINATOR     = 

OBJECT_NAME    = SL-16 R/B
OBJECT_ID      = 1998-043G
CENTER_NAME    = EARTH
REF_FRAME      = TEME
TIME_SYSTEM    = UTC
MEAN_ELEMENT_THEORY = SGP/SGP4

EPOCH          = 2025-12-09T10:19:53.597280
MEAN_MOTION    = 14.26024427
ECCENTRICITY   = .0008814
INCLINATION    = 98.8119
RA_OF_ASC_NODE = 291.2301
ARG_OF_PERICENTER = 277.5497
MEAN_ANOMALY   = 82.4681

EPHEMERIS_TYPE = 0
CLASSIFICATION_TYPE = U
NORAD_CAT_ID   = 25400
ELEMENT_SET_NO = 999
REV_AT_EPOCH   = 42612
BSTAR          = .93461E-4
MEAN_MOTION_DOT = .178E-5
MEAN_MOTION_DDOT = 0

CCSDS_OMM_VERS = 2.0
CREATION_DATE  = 
ORIGINATOR     = 

OBJECT_NAME    = SL-16 R/B
OBJECT_ID      = 1998-045B
CENTER_NAME    = EARTH
REF_FRAME      = TEME
TIME_SYSTEM    = UTC
MEAN_ELEMENT_THEORY = SGP/SGP4

EPOCH          = 2025-12-09T12:22:23.507040
MEAN_MOTION    = 14.16175833
ECCENTRICITY   = .0007095
INCLINATION    = 71.0122
RA_OF_ASC_NODE = 11.2076
ARG_OF_PERICENTER = 182.8298
MEAN_ANOMALY   = 177.2786

EPHEMERIS_TYPE = 0
CLASSIFICATION_TYPE = U
NORAD_CAT_ID   = 25407
ELEMENT_SET_NO = 999
REV_AT_EPOCH   = 41433
BSTAR          = -.46265E-4
MEAN_MOTION_DOT = -.139E-5
MEAN_MOTION_DDOT = 0

CCSDS_OMM_VERS = 2.0
CREATION_DATE  = 
ORIGINATOR     = 

OBJECT_NAME    = ISS (ZARYA)
OBJECT_ID      = 1998-067A
CENTER_NAME    = EARTH
REF_FRAME      = TEME
TIME_SYSTEM    = UTC
MEAN_ELEMENT_THEORY = SGP/SGP4

EPOCH          = 2025-12-09T10:41:18.358368
MEAN_MOTION    = 15.49444513
ECCENTRICITY   = .0003352
INCLINATION    = 51.6308
RA_OF_ASC_NODE = 158.7912
ARG_OF_PERICENTER = 224.7147
MEAN_ANOMALY   = 135.3571

EPHEMERIS_TYPE = 0
CLASSIFICATION_TYPE = U
NORAD_CAT_ID   = 25544
ELEMENT_SET_NO = 999
REV_AT_EPOCH   = 54234
BSTAR          = .25353E-3
MEAN_MOTION_DOT = .13761E-3
MEAN_MOTION_DDOT = 0

CCSDS_OMM_VERS = 2.0
CREATION_DATE  = 
ORIGINATOR     = 

OBJECT_NAME    = CZ-4B R/B
OBJECT_ID      = 1999-025C
CENTER_NAME    = EARTH
REF_FRAME      = TEME
TIME_SYSTEM    = UTC
MEAN_ELEMENT_THEORY = SGP/SGP4

EPOCH          = 2025-12-09T08:28:09.523200
MEAN_MOTION    = 14.18242373
ECCENTRICITY   = .0036189
INCLINATION    = 98.6772
RA_OF_ASC_NODE = 24.7086
ARG_OF_PERICENTER = 243.9824
MEAN_ANOMALY   = 126.5056

EPHEMERIS_TYPE = 0
CLASSIFICATION_TYPE = U
NORAD_CAT_ID   = 25732
ELEMENT_SET_NO = 999
REV_AT_EPOCH   = 37536
BSTAR          = .89738E-4
MEAN_MOTION_DOT = .142E-5
MEAN_MOTION_DDOT = 0

CCSDS_OMM_VERS = 2.0
CREATION_DATE  = 
ORIGINATOR     = 

OBJECT_NAME    = OKEAN-O
OBJECT_ID      = 1999-039A
CENTER_NAME    = EARTH
REF_FRAME      = TEME
TIME_SYSTEM    = UTC
MEAN_ELEMENT_THEORY = SGP/SGP4

EPOCH          = 2025-12-09T03:20:17.606688
MEAN_MOTION    = 14.80151028
ECCENTRICITY   = .00007906
INCLINATION    = 97.9606
RA_OF_ASC_NODE = 38.8718
ARG_OF_PERICENTER = 90.1743
MEAN_ANOMALY   = 269.9559

EPHEMERIS_TYPE = 0
CLASSIFICATION_TYPE = U
NORAD_CAT_ID   = 25860
ELEMENT_SET_NO = 999
REV_AT_EPOCH   = 42099
BSTAR          = .16362553E-3
MEAN_MOTION_DOT = .119E-4
MEAN_MOTION_DDOT = 0

CCSDS_OMM_VERS = 2.0
CREATION_DATE  = 
ORIGINATOR     = 

OBJECT_NAME    = SL-16 R/B
OBJECT_ID      = 1999-039B
CENTER_NAME    = EARTH
REF_FRAME      = TEME
TIME_SYSTEM    = UTC
MEAN_ELEMENT_THEORY = SGP/SGP4

EPOCH          = 2025-12-09T03:18:11.578464
MEAN_MOTION    = 14.81577920
ECCENTRICITY   = .00146425
INCLINATION    = 98.0129
RA_OF_ASC_NODE = 37.2885
ARG_OF_PERICENTER = 186.4384
MEAN_ANOMALY   = 173.6643

EPHEMERIS_TYPE = 0
CLASSIFICATION_TYPE = U
NORAD_CAT_ID   = 25861
ELEMENT_SET_NO = 999
REV_AT_EPOCH   = 42345
BSTAR          = .13358943E-3
MEAN_MOTION_DOT = .997E-5
MEAN_MOTION_DDOT = 0

CCSDS_OMM_VERS = 2.0
CREATION_DATE  = 
ORIGINATOR     = 

OBJECT_NAME    = DELTA 2 R/B
OBJECT_ID      = 1999-041E
CENTER_NAME    = EARTH
REF_FRAME      = TEME
TIME_SYSTEM    = UTC
MEAN_ELEMENT_THEORY = SGP/SGP4

EPOCH          = 2025-12-09T02:27:16.797600
MEAN_MOTION    = 14.11385999
ECCENTRICITY   = .05047509
INCLINATION    = 51.7619
RA_OF_ASC_NODE = 302.9663
ARG_OF_PERICENTER = 81.0451
MEAN_ANOMALY   = 284.7245

EPHEMERIS_TYPE = 0
CLASSIFICATION_TYPE = U
NORAD_CAT_ID   = 25876
ELEMENT_SET_NO = 999
REV_AT_EPOCH   = 35023
BSTAR          = .23671736E-3
MEAN_MOTION_DOT = .1223E-4
MEAN_MOTION_DDOT = 0

CCSDS_OMM_VERS = 2.0
CREATION_DATE  = 
ORIGINATOR     = 

OBJECT_NAME    = HELIOS 1B
OBJECT_ID      = 1999-064A
CENTER_NAME    = EARTH
REF_FRAME      = TEME
TIME_SYSTEM    = UTC
MEAN_ELEMENT_THEORY = SGP/SGP4

EPOCH          = 2025-12-09T10:32:59.591904
MEAN_MOTION    = 14.87261392
ECCENTRICITY   = .0001891
INCLINATION    = 98.1752
RA_OF_ASC_NODE = 238.0073
ARG_OF_PERICENTER = 47.3890
MEAN_ANOMALY   = 312.7484

EPHEMERIS_TYPE = 0
CLASSIFICATION_TYPE = U
NORAD_CAT_ID   = 25977
ELEMENT_SET_NO = 999
REV_AT_EPOCH   = 67184
BSTAR          = .38635E-3
MEAN_MOTION_DOT = .3424E-4
MEAN_MOTION_DDOT = 0

CCSDS_OMM_VERS = 2.0
CREATION_DATE  = 
ORIGINATOR     = 

OBJECT_NAME    = TERRA
OBJECT_ID      = 1999-068A
CENTER_NAME    = EARTH
REF_FRAME      = TEME
TIME_SYSTEM    = UTC
MEAN_ELEMENT_THEORY = SGP/SGP4

EPOCH          = 2025-12-09T12:29:08.334240
MEAN_MOTION    = 14.60896727
ECCENTRICITY   = .0003578
INCLINATION    = 97.9753
RA_OF_ASC_NODE = 35.3229
ARG_OF_PERICENTER = 100.6811
MEAN_ANOMALY   = 347.8952

EPHEMERIS_TYPE = 0
CLASSIFICATION_TYPE = U
NORAD_CAT_ID   = 25994
ELEMENT_SET_NO = 999
REV_AT_EPOCH   = 38191
BSTAR          = .18473E-3
MEAN_MOTION_DOT = .859E-5
MEAN_MOTION_DDOT = 0

CCSDS_OMM_VERS = 2.0
CREATION_DATE  = 
ORIGINATOR     = 

OBJECT_NAME    = SL-16 R/B
OBJECT_ID      = 2000-006B
CENTER_NAME    = EARTH
REF_FRAME      = TEME
TIME_SYSTEM    = UTC
MEAN_ELEMENT_THEORY = SGP/SGP4

EPOCH          = 2025-12-09T07:05:40.835328
MEAN_MOTION    = 14.15810664
ECCENTRICITY   = .0018339
INCLINATION    = 71.0032
RA_OF_ASC_NODE = 287.8987
ARG_OF_PERICENTER = 313.3879
MEAN_ANOMALY   = 46.5716

EPHEMERIS_TYPE = 0
CLASSIFICATION_TYPE = U
NORAD_CAT_ID   = 26070
ELEMENT_SET_NO = 999
REV_AT_EPOCH   = 33576
BSTAR          = .55527E-4
MEAN_MOTION_DOT = .61E-6
MEAN_MOTION_DDOT = 0

CCSDS_OMM_VERS = 2.0
CREATION_DATE  = 
ORIGINATOR     = 

OBJECT_NAME    = TITAN 4B R/B
OBJECT_ID      = 2000-047B
CENTER_NAME    = EARTH
REF_FRAME      = TEME
TIME_SYSTEM    = UTC
MEAN_ELEMENT_THEORY = SGP/SGP4

EPOCH          = 2025-12-09T10:16:50.379168
MEAN_MOTION    = 15.08742252
ECCENTRICITY   = .0039179
INCLINATION    = 67.9903
RA_OF_ASC_NODE = 294.1546
ARG_OF_PERICENTER = 148.5722
MEAN_ANOMALY   = 211.7780

EPHEMERIS_TYPE = 0
CLASSIFICATION_TYPE = U
NORAD_CAT_ID   = 26474
ELEMENT_SET_NO = 999
REV_AT_EPOCH   = 37929
BSTAR          = .35936E-3
MEAN_MOTION_DOT = .5625E-4
MEAN_MOTION_DDOT = 0

CCSDS_OMM_VERS = 2.0
CREATION_DATE  = 
ORIGINATOR     = 

OBJECT_NAME    = ENVISAT
OBJECT_ID      = 2002-009A
CENTER_NAME    = EARTH
REF_FRAME      = TEME
TIME_SYSTEM    = UTC
MEAN_ELEMENT_THEORY = SGP/SGP4

EPOCH          = 2025-12-09T12:12:19.496736
MEAN_MOTION    = 14.38997525
ECCENTRICITY   = .000114
INCLINATION    = 98.3595
RA_OF_ASC_NODE = 294.3310
ARG_OF_PERICENTER = 81.9129
MEAN_ANOMALY   = 31.9031

EPHEMERIS_TYPE = 0
CLASSIFICATION_TYPE = U
NORAD_CAT_ID   = 27386
ELEMENT_SET_NO = 999
REV_AT_EPOCH   = 24620
BSTAR          = .1056E-3
MEAN_MOTION_DOT = .283E-5
MEAN_MOTION_DDOT = 0

