SL-16 R/B               
1 25400U 98043G   25343.43048145  .00000178  00000+0  93461-4 0  9993
2 25400  98.8119 291.2301 0008814 277.5497  82.4681 14.26024427426125
SL-16 R/B               
1 25407U 98045B   25343.51554985 -.00000139  00000+0 -46265-4 0  9994
2 25407  71.0122  11.2076 0007095 182.8298 177.2786 14.16175833414331
ISS (ZARYA)             
1 25544U 98067A   25343.44535137  .00013761  00000+0  25353-3 0  9997
2 25544  51.6308 158.7912 0003352 224.7147 135.3571 15.49444513542341
CZ-4B R/B               
1 25732U 99025C   25343.35288800  .00000142  00000+0  89738-4 0  9990
2 25732  98.6772  24.7086 0036189 243.9824 126.5056 14.18242373375360
OKEAN-O                 
1 25860U 99039A   25343.13909267  .00001190  00000+0  16363-3 0  9997
2 25860  97.9606  38.8718 0000790  90.1743 269.9559 14.80151028420994
SL-16 R/B               
1 25861U 99039B   25343.13763401  .00000997  00000+0  13359-3 0  9992
2 25861  98.0129  37.2885 0014642 186.4384 173.6643 14.81577920423459
DELTA 2 R/B             
1 25876U 99041E   25343.10227775  .00001223  00000+0  23672-3 0  9999
2 25876  51.7619 302.9663 0504750  81.0451 284.7245 14.11385999350233
HELIOS 1B               
1 25977U 99064A   25343.43957861  .00003424  00000+0  38635-3 0  9998
2 25977  98.1752 238.0073 0001891  47.3890 312.7484 14.87261392671845
TERRA                   
1 25994U 99068A   25343.52023535  .00000859  00000+0  18473-3 0  9990
2 25994  97.9753  35.3229 0003578 100.6811 347.8952 14.60896727381915
SL-16 R/B               
1 26070U 00006B   25343.29561152  .00000061  00000+0  55527-4 0  9993
2 26070  71.0032 287.8987 0018339 313.3879  46.5716 14.15810664335766
TITAN 4B R/B            
1 26474U 00047B   25343.42836087  .00005625  00000+0  35936-3 0  9995
2 26474  67.9903 294.1546 0039179 148.5722 211.7780 15.08742252379290
ENVISAT                 
1 27386U 02009A   25343.50855899  .00000283  00000+0  10560-3 0  9990
2 27386  98.3595 294.3310 0001140  81.9129  31.9031 14.38997525246209
